OBJECT_NAME,OBJECT_ID,EPOCH,MEAN_MOTION,ECCENTRICITY,INCLINATION,RA_OF_ASC_NODE,ARG_OF_PERICENTER,MEAN_ANOMALY,EPHEMERIS_TYPE,CLASSIFICATION_TYPE,NORAD_CAT_ID,ELEMENT_SET_NO,REV_AT_EPOCH,BSTAR,MEAN_MOTION_DOT,MEAN_MOTION_DDOT
EYESAT A (AO-27),1993-061C,2026-06-30T03:29:34.987776,14.30945530,.00094117,98.6876,248.5541,66.2807,293.9362,0,U,22825,999,70885,.55321286E-4,.101E-5,0
ITAMSAT (IO-26),1993-061D,2026-06-30T04:35:01.715712,14.31372817,.00097406,98.6824,248.5184,50.8526,309.3521,0,U,22826,999,70917,.5435777E-4,.99E-6,0
RADIO ROSTO (RS15),1994-085A,2026-06-30T12:11:34.120320,11.27583443,.01563903,64.8174,281.6733,1.4131,358.7206,0,U,23439,999,29740,.8222192E-4,-.4E-6,0
JAS-2 (FO-29),1996-046B,2026-06-30T11:18:40.636224,13.53274914,.03508359,98.5227,28.5229,62.0613,301.5579,0,U,24278,999,47496,.10399748E-4,-.23E-6,0
FORTE,1997-047A,2026-06-30T11:22:52.456800,14.27950242,.0024603,69.9543,344.0080,261.3118,98.5217,0,U,24920,999,50058,.82832362E-4,.148E-5,0
TECHSAT 1B (GO-32),1998-043D,2026-06-30T11:32:20.406336,14.24430945,.00017001,99.0072,174.5750,138.6209,221.5098,0,U,25397,999,45322,.46516052E-4,.61E-6,0
ISS (ZARYA),1998-067A,2026-06-30T12:58:41.491200,15.49489460,.00042879,51.6313,233.9888,251.0038,109.0487,0,U,25544,999,57382,.10480906E-3,.5426E-4,0
IMAGE,2000-017A,2026-06-27T08:30:03.789792,1.68666239,.74248625,94.2374,315.5053,286.6524,9.3238,0,U,26113,999,16167,0,-.86E-6,0
CLUSTER II-FM7 (SAMBA),2000-041A,2026-06-30T12:38:19.485024,0.44858661,.90690818,149.8901,53.0517,270.4354,359.5654,0,U,26410,999,2036,0,.15728E-3,0
CLUSTER II-FM8 (TANGO),2000-045B,2026-06-28T16:41:34.777824,0.44420805,.90720795,150.1134,53.8490,271.0645,2.4192,0,U,26464,999,2036,0,.10301E-3,0
ODIN,2001-007A,2026-06-30T02:14:27.077280,15.80880084,.00060128,97.3784,222.9075,133.8248,226.3518,0,U,26702,999,39143,.11434341E-2,.225491E-2,0
OMNI-M1,2001-026A,2026-06-30T11:27:51.374016,3.92401966,.0013842,44.8272,242.2006,55.9165,304.2837,0,U,26857,999,20609,0,.8E-7,0
PCSAT (NO-44),2001-043C,2026-06-30T10:19:05.019744,14.31960263,.00060294,67.0490,210.0201,265.4507,94.5906,0,U,26931,999,29234,.68747198E-4,.101E-5,0
PROBA-1,2001-049B,2026-06-30T13:04:06.846816,15.07554824,.00566995,97.9595,190.5433,78.2006,282.5573,0,U,26958,999,34563,.14808968E-3,.2263E-4,0
SAUDISAT 1C (SO-50),2002-058C,2026-06-30T05:41:21.812064,14.83073203,.00749557,64.5520,88.6095,260.0398,99.2242,0,U,27607,999,26639,.12484524E-3,.912E-5,0
CORIOLIS,2003-001A,2026-06-30T10:40:13.444320,14.19948335,.00141604,98.7127,188.1270,169.9782,190.1680,0,U,27640,999,21610,.64879973E-4,.94E-6,0
CUTE-1 (CO-55),2003-031E,2026-06-29T23:06:24.280128,14.24343456,.00103009,98.6736,189.3610,142.4898,217.7002,0,U,27844,999,19349,.1534011E-3,.311E-5,0
CUBESAT XI-IV (CO-57),2003-031J,2026-06-29T22:59:01.208832,14.23627529,.00097859,98.6768,189.0585,160.0224,200.1339,0,U,27848,999,19319,.13524458E-3,.265E-5,0
MOZHAETS 4 (RS22),2003-042A,2026-06-30T14:17:15.096768,14.73489818,.00102072,98.3465,6.3329,221.8433,228.3349,0,U,27939,999,21752,.10432064E-3,.624E-5,0
